OBJECT_NAME,OBJECT_ID,EPOCH,MEAN_MOTION,ECCENTRICITY,INCLINATION,RA_OF_ASC_NODE,ARG_OF_PERICENTER,MEAN_ANOMALY,EPHEMERIS_TYPE,CLASSIFICATION_TYPE,NORAD_CAT_ID,ELEMENT_SET_NO,REV_AT_EPOCH,BSTAR,MEAN_MOTION_DOT,MEAN_MOTION_DDOT
ONEWEB-0211,2021-045A,2026-07-04T03:26:27.822048,13.16197414,.00024472,87.9000,255.7005,113.6928,246.4460,0,U,48767,999,24667,-.51318678E-4,-.7E-7,0
ONEWEB-0223,2021-045B,2026-07-04T21:57:03.494592,13.15548130,.00021158,87.9004,255.6599,110.7084,249.4273,0,U,48768,999,24673,-.30974027E-3,-.104E-5,0
ONEWEB-0230,2021-045C,2026-07-04T15:47:25.476000,13.15547965,.00019178,87.8993,255.7230,94.8298,265.3052,0,U,48769,999,24696,.50105409E-3,.201E-5,0
ONEWEB-0237,2021-045D,2026-07-04T11:52:24.079296,13.15548220,.00023644,87.8993,255.7573,101.1865,258.9532,0,U,48770,999,24666,.55789983E-3,.223E-5,0
ONEWEB-0235,2021-045E,2026-07-04T11:15:53.523936,13.15549545,.00020023,87.9001,255.7497,111.4992,248.6352,0,U,48771,999,24665,-.26752243E-4,.3E-7,0
ONEWEB-0242,2021-045F,2026-07-04T22:03:54.489024,13.15547617,.00018921,87.9007,255.6573,102.5503,257.5839,0,U,48772,999,24675,-.52861422E-3,-.186E-5,0
ONEWEB-0241,2021-045G,2026-07-04T21:45:38.196576,13.15550257,.00022977,87.8995,255.6760,109.2322,250.9057,0,U,48773,999,24666,-.52232285E-3,-.184E-5,0
ONEWEB-0243,2021-045H,2026-07-04T15:13:12.258624,13.15550563,.00015866,87.8992,255.7428,110.2677,249.8624,0,U,48774,999,24665,.28702681E-3,.121E-5,0
ONEWEB-0222,2021-045J,2026-07-04T22:07:18.363648,13.15548624,.00021844,87.9013,255.6547,105.2386,254.8986,0,U,48775,999,24673,-.91437054E-3,-.331E-5,0
ONEWEB-0244,2021-045K,2026-07-04T15:26:53.209824,13.15548194,.00019511,87.9007,255.7055,103.0742,257.0607,0,U,48776,999,24726,.58141231E-3,.232E-5,0
ONEWEB-0247,2021-045L,2026-07-04T15:22:19.663968,13.15548585,.00017,87.8990,255.7359,123.1977,236.9316,0,U,48777,999,24670,.38753754E-3,.159E-5,0
ONEWEB-0245,2021-045M,2026-07-04T11:36:25.650144,13.15549314,.00021368,87.9001,255.7479,103.7203,256.4165,0,U,48778,999,24665,.47782472E-3,.193E-5,0
ONEWEB-0229,2021-045N,2026-07-04T11:29:34.910592,13.15547568,.00019127,87.8999,255.7466,101.3148,258.8197,0,U,48779,999,24668,.24484222E-3,.105E-5,0
ONEWEB-0228,2021-045P,2026-07-04T10:28:10.741152,13.15549436,.00019872,87.9008,255.7487,101.2354,258.9000,0,U,48780,999,24659,.91386569E-4,.47E-6,0
ONEWEB-0232,2021-045Q,2026-07-04T11:40:59.909664,13.15547662,.00021425,87.9004,255.7394,100.4220,259.7152,0,U,48781,999,24692,.25614293E-3,.109E-5,0
ONEWEB-0231,2021-045R,2026-07-04T11:09:02.446560,13.15547451,.00020689,87.8999,255.7558,106.2648,253.8710,0,U,48782,999,24661,.10226106E-3,.51E-6,0
ONEWEB-0234,2021-045S,2026-07-04T10:14:05.203968,13.15547587,.00028923,87.9004,255.7454,95.3512,264.7948,0,U,48783,999,24674,.42460921E-3,.173E-5,0
ONEWEB-0238,2021-045T,2026-07-04T10:14:28.003200,13.15557554,.00023844,87.9013,255.7407,97.2100,262.9301,0,U,48784,999,24664,-.49403028E-2,-.1847E-4,0
ONEWEB-0240,2021-045U,2026-07-04T21:42:13.617792,13.15548993,.00022389,87.9005,255.6554,106.6874,253.4502,0,U,48785,999,24673,-.41830839E-3,-.145E-5,0
ONEWEB-0246,2021-045V,2026-07-04T10:37:05.886336,13.15548071,.00019528,87.9005,255.7514,100.4294,259.7056,0,U,48786,999,24654,.69033827E-4,.39E-6,0
ONEWEB-0210,2021-045W,2026-07-04T11:50:07.073952,13.15547907,.00013715,87.9004,255.7387,118.9243,241.2025,0,U,48787,999,24659,.4203713E-3,.171E-5,0
ONEWEB-0214,2021-045X,2026-07-04T15:41:41.438112,13.15549880,.00016515,87.9005,255.7035,96.2611,263.8708,0,U,48788,999,24658,.54138295E-3,.217E-5,0
ONEWEB-0221,2021-045Y,2026-07-04T10:23:25.221120,13.15547817,.00019912,87.9005,255.7561,105.0137,255.1213,0,U,48789,999,24664,.1032682E-3,.52E-6,0
ONEWEB-0213,2021-045Z,2026-07-04T10:07:26.925888,13.15548451,.00019041,87.9005,255.7615,107.1156,253.0183,0,U,48790,999,24670,.55218871E-3,.221E-5,0
ONEWEB-0212,2021-045AA,2026-07-04T11:23:51.138816,13.15546983,.00020557,87.9001,255.7452,99.1283,261.0079,0,U,48791,999,24670,.23567082E-3,.102E-5,0
ONEWEB-0227,2021-045AB,2026-07-04T11:22:44.152032,13.15547919,.0002034,87.8999,255.7458,102.0742,258.0616,0,U,48792,999,24665,.23075143E-3,.1E-5,0
ONEWEB-0226,2021-045AC,2026-07-04T14:52:38.917632,13.15547707,.00018232,87.9000,255.7213,105.2803,254.8529,0,U,48793,999,24664,-.17692611E-3,-.54E-6,0
ONEWEB-0224,2021-045AD,2026-07-04T03:03:03.104928,13.15547919,.00028286,87.8996,255.8525,108.0351,252.1088,0,U,48794,999,24650,.17256988E-3,.78E-6,0
ONEWEB-0233,2021-045AE,2026-07-04T10:27:47.856384,13.15539652,.0002089,87.8992,255.7982,107.3479,252.7880,0,U,48795,999,24656,-.24497418E-2,-.909E-5,0
ONEWEB-0190,2021-045AF,2026-07-04T15:38:17.837376,13.15548005,.00019055,87.8998,255.7181,119.0606,241.0716,0,U,48796,999,24666,.40227141E-3,.164E-5,0
